#dP2024  7 11  0  0  0.00000000      97 __u+U IGS20 FIT  IAC
## 2322 345600.00000000   900.00000000 60502 0.0000000000000
+  117   C06C07C08C09C10C11C12C13C14C16C19C20C21C22C23C24C25
+        C26C27C28C29C30C32C33C34C35C36C37C38C39C40C41C42C43
+        C44C45E02E03E05E07E08E09E10E11E12E13E14E15E18E19E21
+        E24E25E26E27E30E31E33E34E36G02G03G04G05G06G07G08G09
+        G10G11G12G13G14G15G16G17G18G19G20G21G22G23G24G25G26
+        G27G28G29G30G31G32J02J03J04R01R02R03R04R05R07R08R09
+        R11R12R13R14R15R16R17R18R19R20R21R22R24R25R26  0  0
++         7  7  7  7  7  7  7  7  7  7  5  6  6  5  5  6  5
++         6  6  6  6  6  6  6  6  5  5  6  6  6  6  6  6  6
++         6  6  4  4  4  4  4  4  4  4  4  4  4  4  4  4  4
++         4  4  4  4  4  4  4  4  4  3  3  4  4  4  4  4  3
++         4  4  4  4  3  4  4  3  4  3  4  4  3  3  4  4  4
++         4  4  4  4  4  4 11 11 11  8  6  6  6  6  6  6  6
++         6  6  8  6  6  6  6  7  7  8  6  6  6  7  7  0  0
%c M  cc GPS ccc cccc cccc cccc cccc ccccc ccccc ccccc ccccc
%c cc cc ccc ccc cccc cccc cccc cccc ccccc ccccc ccccc ccccc
%f  1.2500000  1.025000000  0.00000000000  0.000000000000000
%f  0.0000000  0.000000000  0.00000000000  0.000000000000000
%i    0    0    0    0      0      0      0      0         0
%i    0    0    0    0      0      0      0      0         0
/* INFORMATION & ANALYSIS CENTER (IAC)            FINAL DATA
/* S/V CLOCKS ARE ALIGNED TO GNSS TIME                      
/* G:C1WC2W R:C1PC2P E:C1XC5X C:C2IC6I J:C1CC2S             
/* PCV:IGS20_2317 OL/AL:FES2004  NONE     YN ORB:CoN CLK:CoN
*  2024 07 11 21 45  0.00000000
PC06  -8431.900805  40161.817122  -8907.313423    582.797779
PC07  -5279.819805  27736.429001  31452.301686   -558.698704
PC08 -18665.071820  27184.018801 -26435.854188   -304.405610
PC09  -2473.448503  41715.254540   2132.523979    -18.090214
PC10   2420.537509  29798.117177  30242.190561    -71.833691
PC11  -7872.568102 -26736.225750  -1134.009186    657.653572
PC12   5480.610101 -20802.169066 -17736.707487   -262.963414
PC13 -12685.862926  27918.449887 -28921.291991    438.713235
PC14  -9214.946497 -15967.576319  20934.052154    911.908591
PC16  -8205.950093  40098.215510  -9075.081975   -650.296982
PC19  18783.370686  13790.437328 -15362.011464   -917.894401
PC20    358.616641  15772.283217 -23018.341045   -674.878007
PC21  20227.989457  -8282.131779  17375.418981   -958.272365
PC22  27614.913705   3834.107372   1569.866453     57.521177
PC23 -19713.739252   1381.762424 -19693.081405   -797.523433
PC24   9420.054284 -23810.908680 -11072.300517    883.314819
PC25  -7603.228025 -15697.278206 -21786.978856    448.986834
PC26  20152.006850 -18292.966439   6072.853952   -318.437058
PC27 -11487.121131  13176.676927  21729.313449    339.426716
PC28 -17521.196805  -4778.516329  21188.241194    261.439145
PC29  14308.567301  23044.852912  -6571.679376    306.922204
PC30   1442.094145  25349.114163  11551.597682   -129.158966
PC32 -20214.106615   8394.349546 -17290.336029   -670.603370
PC33 -18727.857667 -13728.631674  15455.391487   -961.044966
PC34  -2668.290927 -25876.685510 -10135.281073    475.034291
PC35  17834.873453   4532.892000 -20986.890267    315.563888
PC36   7415.694651  15735.881107  21850.454992    133.710168
PC37 -20581.087239  17844.623487  -6106.225752   -925.036157
PC38 -24990.732614  28775.617012 -18150.481121    166.637253
PC39 -10836.615017  36913.362519 -16887.460137     -9.114332
PC40  -9156.749202  21951.245025  34847.311394    -79.713770
PC41 -27548.690484  -4324.721761   -616.100171   -945.782858
PC42   1762.717331 -15554.479500  23137.198947   -452.182395
PC43 -13846.329681 -23572.489681   5625.449052     78.492171
PC44  11200.855884 -13534.528107 -21704.737104    530.148172
PC45  19476.959990   -981.922011  19957.414372   -103.573578
PE02  -7266.617089  18011.336183  22340.845269    142.548551
PE03   3411.835753  22134.228775 -19366.778895   -126.300535
PE05 -14484.916195   9319.375550 -24068.088619   4765.085436
PE07  24087.951189   9339.444050  14468.303745   -130.593783
PE08  19208.021579  22226.348682  -3715.373003   -301.266418
PE09 -24021.822966  -9464.760810 -14455.567845   -512.062878
PE10 -12928.884269 -11608.417864  23950.174009   -639.711197
PE11 -16468.673854    249.206131  24577.093623   2395.313518
PE12  -7939.296367 -20530.610876  19786.123845  -1119.773944
PE13  16285.790128    377.596784 -24717.613230    -22.918277
PE14  -2383.512987 -21078.287646 -15681.034631    111.162649
PE15   7551.159354  20973.996948 -19473.590720   -114.199904
PE18  17915.496616  24780.403569   5341.479000    315.999360
PE19  -1465.645813 -21266.362084  20542.586432    272.159333
PE21  24522.024851 -13612.151243  -9465.607731   -604.888939
PE24 -27996.881712    760.262323  -9614.136285   -868.475901
PE25 -24767.895970  13418.498946   9100.838834      6.776627
PE26  15274.201665 -20487.640151 -14935.587617    509.529028
PE27  28039.653130  -1020.204592   9429.874067   -397.878684
PE30  14907.113354  12129.003194  22506.108088   -496.821816
PE31 -14993.366592 -12001.099225 -22512.842480    -29.069130
PE33   5793.280747 -28922.824052   2405.483800     13.664046
PE34  -5418.464376  28962.547294  -2902.260481   -122.082461
PE36 -15351.368797  20051.767699  15433.742969   -253.614517
PG02 -13912.831664  14663.210913  17541.928013   -400.884258
PG03 -21641.273198  12925.376106  -8337.550498    453.872361
PG04 -12818.351229   8483.083072 -21656.630383    401.803696
PG05  25190.867070  -4137.053072  -7664.650665   -179.415606
PG06   6350.469324  20101.480389 -16029.096223    167.218962
PG07  -5394.085489  25736.059938   -155.906561    -71.982652
PG08 -20456.358317  -1219.639318  17011.179367    270.177997
PG09  -1173.808421  17430.428465 -20075.682840    269.417266
PG10  -7891.448437 -12844.459665  22102.860302    -63.763538
PG11  13666.054995   6986.590715 -21658.387815   -703.051306
PG12  23637.839278 -10526.004156  -6154.328039   -521.485278
PG13  20620.978257  10966.395090  12654.651092    663.921221
PG14   3543.550938  15183.477691  21536.403644    446.550491
PG15  20381.912293  -1384.108720  16564.703977    180.029256
PG16 -24762.294230  -1550.085054 -10405.262780   -239.377706
PG17  10740.375017  21666.278300  11213.239547    679.375937
PG18   5758.374467 -25810.529825     37.173036   -635.472746
PG19  17038.644144  20565.813870   1879.489455    509.078653
PG20  20896.250658   1653.908877 -16156.115697    372.865576
PG21 -15161.181063   8336.014853  20276.000077    109.559503
PG22  11537.691389  12278.500388  20882.768367    -38.421518
PG23   5638.669587 -16391.317375  20084.535361    271.521242
PG24  14416.672441 -12956.340441  17552.602083   -482.681918
PG25  15423.991336 -16313.131761 -14325.766451    498.412897
PG26 -16486.395619  -8566.888297 -19257.908116    121.659376
PG27 -22429.412202 -11525.589598   8698.456900    -30.877927
PG28  -6127.347836 -21782.168274 -13917.801764   -327.222648
PG29   5606.993729 -15036.651290 -21188.838172   -590.016235
PG30   2221.605090  24565.848426   9640.137267   -359.433677
PG31 -12317.824865 -11630.802265 -20581.972235   -226.835196
PG32 -13843.009980 -20804.188870   9503.175398   -612.643437
PJ02 -31522.830746  24171.056881  19218.585797     -0.523277
PJ03 -27893.141973  27263.413942  21260.272625     -1.113645
PJ04 -27216.239151  20832.209114 -19408.591291     50.562799
PR01  -1702.665898  10925.331612 -22988.888210     91.086649
PR02  15047.696436  13457.669280 -15507.833689    -23.667343
PR03  24030.958774   8415.858329    948.222599    103.613073
PR04  19523.309243   -666.762535  16423.324212    244.904691
PR05   4693.559770  -9640.413522  23153.797323    134.406159
PR07 -24131.489407  -8197.868319  -1528.970492     86.455734
PR08 -19440.563364    983.012009 -16445.775486     -5.820623
PR09  -2341.843007 -12572.067957 -22060.421603    197.155575
PR11 -20666.347653  12592.928244  -8014.744852     18.497657
PR12 -13460.174903  18461.442009  11383.569587     42.334981
PR13   -364.192579  13892.951342  21382.537181    -49.217656
PR14  15811.615638   -701.484362  20030.181644     26.687419
PR15  20758.037524 -13370.186200   6451.181625     77.974161
PR16  13627.524840 -18467.762051 -11156.923950     27.279277
PR17  11197.009426  10462.361610 -20404.036158    103.756310
PR18   9209.236223  -7408.028332 -22600.379953    151.481338
PR19   4150.994687 -20410.752273 -14723.097267   -283.532631
PR20  -5536.575270 -24212.180136   5891.543533   -115.961033
PR21 -10999.829775 -10908.925181  20248.520303   -116.726110
PR22  -9498.920335   8422.742067  22145.855729     89.950088
PR24   6952.697850  23719.118064  -6341.218756    -63.379351
PR25 -11081.327149 -10463.786263  20448.417506    -95.949241
PR26 -20233.660023    335.442296 -15494.490818      3.822885
EOF
